CCSDS_OMM_VERS = 2.0
CREATION_DATE  = 
ORIGINATOR     = 

OBJECT_NAME    = STARLINK-35667
OBJECT_ID      = 2025-257W
CENTER_NAME    = EARTH
REF_FRAME      = TEME
TIME_SYSTEM    = UTC
MEAN_ELEMENT_THEORY = SGP/SGP4

EPOCH          = 2025-12-04T15:11:45.785184
MEAN_MOTION    = 15.49348460
ECCENTRICITY   = .000164
INCLINATION    = 53.1595
RA_OF_ASC_NODE = 302.5381
ARG_OF_PERICENTER = 82.5247
MEAN_ANOMALY   = 277.5949

EPHEMERIS_TYPE = 0
CLASSIFICATION_TYPE = U
NORAD_CAT_ID   = 66400
ELEMENT_SET_NO = 999
REV_AT_EPOCH   = 512
BSTAR          = .30128646E-2
MEAN_MOTION_DOT = .171072E-2
MEAN_MOTION_DDOT = 0

CCSDS_OMM_VERS = 2.0
CREATION_DATE  = 
ORIGINATOR     = 

OBJECT_NAME    = STARLINK-35668
OBJECT_ID      = 2025-257X
CENTER_NAME    = EARTH
REF_FRAME      = TEME
TIME_SYSTEM    = UTC
MEAN_ELEMENT_THEORY = SGP/SGP4

EPOCH          = 2025-12-04T15:11:15.968544
MEAN_MOTION    = 15.49327269
ECCENTRICITY   = .00013834
INCLINATION    = 53.1594
RA_OF_ASC_NODE = 302.5360
ARG_OF_PERICENTER = 84.7482
MEAN_ANOMALY   = 275.3685

EPHEMERIS_TYPE = 0
CLASSIFICATION_TYPE = U
NORAD_CAT_ID   = 66401
ELEMENT_SET_NO = 999
REV_AT_EPOCH   = 512
BSTAR          = .16590795E-2
MEAN_MOTION_DOT = .92988E-3
MEAN_MOTION_DDOT = 0

CCSDS_OMM_VERS = 2.0
CREATION_DATE  = 
ORIGINATOR     = 

OBJECT_NAME    = STARLINK-35644
OBJECT_ID      = 2025-257Y
CENTER_NAME    = EARTH
REF_FRAME      = TEME
TIME_SYSTEM    = UTC
MEAN_ELEMENT_THEORY = SGP/SGP4

EPOCH          = 2025-12-04T09:00:41.115168
MEAN_MOTION    = 15.49361816
ECCENTRICITY   = .00013662
INCLINATION    = 53.1595
RA_OF_ASC_NODE = 303.7737
ARG_OF_PERICENTER = 92.3503
MEAN_ANOMALY   = 267.7663

EPHEMERIS_TYPE = 0
CLASSIFICATION_TYPE = U
NORAD_CAT_ID   = 66402
ELEMENT_SET_NO = 999
REV_AT_EPOCH   = 508
BSTAR          = .204785E-2
MEAN_MOTION_DOT = .115355E-2
MEAN_MOTION_DDOT = 0

CCSDS_OMM_VERS = 2.0
CREATION_DATE  = 
ORIGINATOR     = 

OBJECT_NAME    = STARLINK-35602
OBJECT_ID      = 2025-257Z
CENTER_NAME    = EARTH
REF_FRAME      = TEME
TIME_SYSTEM    = UTC
MEAN_ELEMENT_THEORY = SGP/SGP4

EPOCH          = 2025-12-04T12:04:59.236896
MEAN_MOTION    = 15.49333398
ECCENTRICITY   = .00016424
INCLINATION    = 53.1594
RA_OF_ASC_NODE = 303.1506
ARG_OF_PERICENTER = 71.9763
MEAN_ANOMALY   = 288.1425

EPHEMERIS_TYPE = 0
CLASSIFICATION_TYPE = U
NORAD_CAT_ID   = 66403
ELEMENT_SET_NO = 999
REV_AT_EPOCH   = 510
BSTAR          = .13174378E-2
MEAN_MOTION_DOT = .73579E-3
MEAN_MOTION_DDOT = 0

CCSDS_OMM_VERS = 2.0
CREATION_DATE  = 
ORIGINATOR     = 

OBJECT_NAME    = STARLINK-35691
OBJECT_ID      = 2025-257AA
CENTER_NAME    = EARTH
REF_FRAME      = TEME
TIME_SYSTEM    = UTC
MEAN_ELEMENT_THEORY = SGP/SGP4

EPOCH          = 2025-12-04T15:10:17.080032
MEAN_MOTION    = 15.49358169
ECCENTRICITY   = .00026414
INCLINATION    = 53.1593
RA_OF_ASC_NODE = 302.5309
ARG_OF_PERICENTER = 77.8032
MEAN_ANOMALY   = 282.3272

EPHEMERIS_TYPE = 0
CLASSIFICATION_TYPE = U
NORAD_CAT_ID   = 66404
ELEMENT_SET_NO = 999
REV_AT_EPOCH   = 512
BSTAR          = .35186329E-2
MEAN_MOTION_DOT = .200705E-2
MEAN_MOTION_DDOT = 0

CCSDS_OMM_VERS = 2.0
CREATION_DATE  = 
ORIGINATOR     = 

OBJECT_NAME    = STARLINK-35683
OBJECT_ID      = 2025-257AB
CENTER_NAME    = EARTH
REF_FRAME      = TEME
TIME_SYSTEM    = UTC
MEAN_ELEMENT_THEORY = SGP/SGP4

EPOCH          = 2025-12-04T15:09:46.993824
MEAN_MOTION    = 15.49351449
ECCENTRICITY   = .00015184
INCLINATION    = 53.1592
RA_OF_ASC_NODE = 302.5279
ARG_OF_PERICENTER = 92.4448
MEAN_ANOMALY   = 267.6735

EPHEMERIS_TYPE = 0
CLASSIFICATION_TYPE = U
NORAD_CAT_ID   = 66405
ELEMENT_SET_NO = 999
REV_AT_EPOCH   = 505
BSTAR          = .31464106E-2
MEAN_MOTION_DOT = .178873E-2
MEAN_MOTION_DDOT = 0

CCSDS_OMM_VERS = 2.0
CREATION_DATE  = 
ORIGINATOR     = 

OBJECT_NAME    = STARLINK-34840
OBJECT_ID      = 2025-257AC
CENTER_NAME    = EARTH
REF_FRAME      = TEME
TIME_SYSTEM    = UTC
MEAN_ELEMENT_THEORY = SGP/SGP4

EPOCH          = 2025-12-04T15:08:17.830752
MEAN_MOTION    = 15.49343612
ECCENTRICITY   = .00015287
INCLINATION    = 53.1590
RA_OF_ASC_NODE = 302.5205
ARG_OF_PERICENTER = 83.4462
MEAN_ANOMALY   = 276.6721

EPHEMERIS_TYPE = 0
CLASSIFICATION_TYPE = U
NORAD_CAT_ID   = 66406
ELEMENT_SET_NO = 999
REV_AT_EPOCH   = 506
BSTAR          = .22591517E-2
MEAN_MOTION_DOT = .127421E-2
MEAN_MOTION_DDOT = 0

CCSDS_OMM_VERS = 2.0
CREATION_DATE  = 
ORIGINATOR     = 

OBJECT_NAME    = STARLINK-35686
OBJECT_ID      = 2025-257AD
CENTER_NAME    = EARTH
REF_FRAME      = TEME
TIME_SYSTEM    = UTC
MEAN_ELEMENT_THEORY = SGP/SGP4

EPOCH          = 2025-12-04T15:09:17.308512
MEAN_MOTION    = 15.49354281
ECCENTRICITY   = .00014318
INCLINATION    = 53.1591
RA_OF_ASC_NODE = 302.5257
ARG_OF_PERICENTER = 80.3679
MEAN_ANOMALY   = 279.7491

EPHEMERIS_TYPE = 0
CLASSIFICATION_TYPE = U
NORAD_CAT_ID   = 66407
ELEMENT_SET_NO = 999
REV_AT_EPOCH   = 512
BSTAR          = .30392104E-2
MEAN_MOTION_DOT = .172642E-2
MEAN_MOTION_DDOT = 0

CCSDS_OMM_VERS = 2.0
CREATION_DATE  = 
ORIGINATOR     = 

OBJECT_NAME    = STARLINK-35679
OBJECT_ID      = 2025-257AE
CENTER_NAME    = EARTH
REF_FRAME      = TEME
TIME_SYSTEM    = UTC
MEAN_ELEMENT_THEORY = SGP/SGP4

EPOCH          = 2025-12-04T10:30:06.854976
MEAN_MOTION    = 15.49361629
ECCENTRICITY   = .00014429
INCLINATION    = 53.1595
RA_OF_ASC_NODE = 303.4498
ARG_OF_PERICENTER = 80.5136
MEAN_ANOMALY   = 279.6036

EPHEMERIS_TYPE = 0
CLASSIFICATION_TYPE = U
NORAD_CAT_ID   = 66408
ELEMENT_SET_NO = 999
REV_AT_EPOCH   = 509
BSTAR          = .18523184E-2
MEAN_MOTION_DOT = .104147E-2
MEAN_MOTION_DDOT = 0

CCSDS_OMM_VERS = 2.0
CREATION_DATE  = 
ORIGINATOR     = 

OBJECT_NAME    = CHUTIAN-2 A
OBJECT_ID      = 2025-256A
CENTER_NAME    = EARTH
REF_FRAME      = TEME
TIME_SYSTEM    = UTC
MEAN_ELEMENT_THEORY = SGP/SGP4

EPOCH          = 2025-12-04T15:38:19.345056
MEAN_MOTION    = 14.49919426
ECCENTRICITY   = .00133666
INCLINATION    = 98.2770
RA_OF_ASC_NODE = 43.5566
ARG_OF_PERICENTER = 202.1631
MEAN_ANOMALY   = 157.8987

EPHEMERIS_TYPE = 0
CLASSIFICATION_TYPE = U
NORAD_CAT_ID   = 66409
ELEMENT_SET_NO = 999
REV_AT_EPOCH   = 370
BSTAR          = .48653783E-4
MEAN_MOTION_DOT = .144E-5
MEAN_MOTION_DDOT = 0

CCSDS_OMM_VERS = 2.0
CREATION_DATE  = 
ORIGINATOR     = 

OBJECT_NAME    = CHUTIAN-2 B
OBJECT_ID      = 2025-256B
CENTER_NAME    = EARTH
REF_FRAME      = TEME
TIME_SYSTEM    = UTC
MEAN_ELEMENT_THEORY = SGP/SGP4

EPOCH          = 2025-12-04T15:20:15.013824
MEAN_MOTION    = 14.51009403
ECCENTRICITY   = .00133435
INCLINATION    = 98.2800
RA_OF_ASC_NODE = 43.5789
ARG_OF_PERICENTER = 206.2777
MEAN_ANOMALY   = 153.7742

EPHEMERIS_TYPE = 0
CLASSIFICATION_TYPE = U
NORAD_CAT_ID   = 66410
ELEMENT_SET_NO = 999
REV_AT_EPOCH   = 370
BSTAR          = .34150547E-3
MEAN_MOTION_DOT = .1308E-4
MEAN_MOTION_DDOT = 0

CCSDS_OMM_VERS = 2.0
CREATION_DATE  = 
ORIGINATOR     = 

OBJECT_NAME    = ZK-1A R/B
OBJECT_ID      = 2025-256C
CENTER_NAME    = EARTH
REF_FRAME      = TEME
TIME_SYSTEM    = UTC
MEAN_ELEMENT_THEORY = SGP/SGP4

EPOCH          = 2025-12-04T15:39:23.823648
MEAN_MOTION    = 15.01679710
ECCENTRICITY   = .02293125
INCLINATION    = 98.3247
RA_OF_ASC_NODE = 45.8472
ARG_OF_PERICENTER = 271.9996
MEAN_ANOMALY   = 85.4983

EPHEMERIS_TYPE = 0
CLASSIFICATION_TYPE = U
NORAD_CAT_ID   = 66411
ELEMENT_SET_NO = 999
REV_AT_EPOCH   = 383
BSTAR          = .10701511E-2
MEAN_MOTION_DOT = .24635E-3
MEAN_MOTION_DDOT = 0

